{
  "type": "FeatureCollection",
  "features": [
    {
      "type": "Feature",
      "properties": {
        "norad_id": 30947,
        "name": "FENGYUN 1C DEB",
        "group": "fengyun-1c-debris",
        "lat": 7.561018659021587,
        "lon": -118.77392896598876,
        "alt_km": 817.0710844624882,
        "timestamp": "2025-12-18T14:52:08.305571+00:00",
        "meta_object_name": "FENGYUN 1C DEB",
        "meta_object_id": "1999-025BAM",
        "meta_epoch": "2025-12-17T22:08:02.807808",
        "meta_mean_motion": 14.38050747,
        "meta_eccentricity": 0.00957725,
        "meta_inclination": 98.8089,
        "meta_ra_of_asc_node": 241.6907,
        "meta_arg_of_pericenter": 232.2262,
        "meta_mean_anomaly": 127.0221,
        "meta_ephemeris_type": 0,
        "meta_classification_type": "U",
        "meta_norad_cat_id": 30947,
        "meta_element_set_no": 999,
        "meta_rev_at_epoch": 98567,
        "meta_bstar": 0.00022660227,
        "meta_mean_motion_dot": 6.74e-06,
        "meta_mean_motion_ddot": 0,
        "tle_line1": "1 30947U 99025BAM 25351.92225472  .00000674  00000+0  22660-3 0  9992",
        "tle_line2": "2 30947  98.8089 241.6907 0095772 232.2262 127.0221 14.38050747985674"
      },
      "geometry": {
        "type": "Point",
        "coordinates": [
          -118.77392896598876,
          7.561018659021587
        ]
      }
    },
    {
      "type": "Feature",
      "properties": {
        "norad_id": 30949,
        "name": "FENGYUN 1C DEB",
        "group": "fengyun-1c-debris",
        "lat": 32.7554690382151,
        "lon": 172.46596321674497,
        "alt_km": 912.9736901856086,
        "timestamp": "2025-12-18T14:52:08.305582+00:00",
        "meta_object_name": "FENGYUN 1C DEB",
        "meta_object_id": "1999-025BAP",
        "meta_epoch": "2025-12-17T23:01:00.749280",
        "meta_mean_motion": 14.14054006,
        "meta_eccentricity": 0.01161995,
        "meta_inclination": 98.6977,
        "meta_ra_of_asc_node": 346.1712,
        "meta_arg_of_pericenter": 294.825,
        "meta_mean_anomaly": 92.1685,
        "meta_ephemeris_type": 0,
        "meta_classification_type": "U",
        "meta_norad_cat_id": 30949,
        "meta_element_set_no": 999,
        "meta_rev_at_epoch": 96590,
        "meta_bstar": 0.00022059373,
        "meta_mean_motion_dot": 4.03e-06,
        "meta_mean_motion_ddot": 0,
        "tle_line1": "1 30949U 99025BAP 25351.95903645  .00000403  00000+0  22059-3 0  9994",
        "tle_line2": "2 30949  98.6977 346.1712 0116199 294.8250  92.1685 14.14054006965909"
      },
      "geometry": {
        "type": "Point",
        "coordinates": [
          172.46596321674497,
          32.7554690382151
        ]
      }
    },
    {
      "type": "Feature",
      "properties": {
        "norad_id": 30954,
        "name": "FENGYUN 1C DEB",
        "group": "fengyun-1c-debris",
        "lat": -30.21725963841557,
        "lon": -92.52697662263685,
        "alt_km": 776.4065577385918,
        "timestamp": "2025-12-18T14:52:08.305592+00:00",
        "meta_object_name": "FENGYUN 1C DEB",
        "meta_object_id": "1999-025BAU",
        "meta_epoch": "2025-12-18T05:42:44.125344",
        "meta_mean_motion": 14.14957221,
        "meta_eccentricity": 0.01288718,
        "meta_inclination": 98.7134,
        "meta_ra_of_asc_node": 92.2248,
        "meta_arg_of_pericenter": 171.7499,
        "meta_mean_anomaly": 255.447,
        "meta_ephemeris_type": 0,
        "meta_classification_type": "U",
        "meta_norad_cat_id": 30954,
        "meta_element_set_no": 999,
        "meta_rev_at_epoch": 96465,
        "meta_bstar": 0.00095397034,
        "meta_mean_motion_dot": 1.957e-05,
        "meta_mean_motion_ddot": 0,
        "tle_line1": "1 30954U 99025BAU 25352.23801071  .00001957  00000+0  95397-3 0  9992",
        "tle_line2": "2 30954  98.7134  92.2248 0128871 171.7499 255.4470 14.14957221964650"
      },
      "geometry": {
        "type": "Point",
        "coordinates": [
          -92.52697662263685,
          -30.21725963841557
        ]
      }
    },
    {
      "type": "Feature",
      "properties": {
        "norad_id": 30956,
        "name": "FENGYUN 1C DEB",
        "group": "fengyun-1c-debris",
        "lat": -10.415788677534406,
        "lon": -155.1037696617477,
        "alt_km": 874.3171927849935,
        "timestamp": "2025-12-18T14:52:08.305602+00:00",
        "meta_object_name": "FENGYUN 1C DEB",
        "meta_object_id": "1999-025BAW",
        "meta_epoch": "2025-12-17T13:14:34.844352",
        "meta_mean_motion": 14.14225224,
        "meta_eccentricity": 0.00491187,
        "meta_inclination": 98.7598,
        "meta_ra_of_asc_node": 25.4736,
        "meta_arg_of_pericenter": 328.9596,
        "meta_mean_anomaly": 188.7624,
        "meta_ephemeris_type": 0,
        "meta_classification_type": "U",
        "meta_norad_cat_id": 30956,
        "meta_element_set_no": 999,
        "meta_rev_at_epoch": 96375,
        "meta_bstar": 0.00083080749,
        "meta_mean_motion_dot": 1.56e-05,
        "meta_mean_motion_ddot": 0,
        "tle_line1": "1 30956U 99025BAW 25351.55179218  .00001560  00000+0  83081-3 0  9996",
        "tle_line2": "2 30956  98.7598  25.4736 0049118 328.9596 188.7624 14.14225224963756"
      },
      "geometry": {
        "type": "Point",
        "coordinates": [
          -155.1037696617477,
          -10.415788677534406
        ]
      }
    },
    {
      "type": "Feature",
      "properties": {
        "norad_id": 30960,
        "name": "FENGYUN 1C DEB",
        "group": "fengyun-1c-debris",
        "lat": 49.421981450074,
        "lon": 98.5097775452458,
        "alt_km": 671.7496541849887,
        "timestamp": "2025-12-18T14:52:08.305612+00:00",
        "meta_object_name": "FENGYUN 1C DEB",
        "meta_object_id": "1999-025BBA",
        "meta_epoch": "2025-12-18T03:10:39.664992",
        "meta_mean_motion": 14.66992956,
        "meta_eccentricity": 0.01961531,
        "meta_inclination": 99.0009,
        "meta_ra_of_asc_node": 108.6406,
        "meta_arg_of_pericenter": 145.2813,
        "meta_mean_anomaly": 216.1374,
        "meta_ephemeris_type": 0,
        "meta_classification_type": "U",
        "meta_norad_cat_id": 30960,
        "meta_element_set_no": 999,
        "meta_rev_at_epoch": 98777,
        "meta_bstar": 0.0011958402,
        "meta_mean_motion_dot": 8.891e-05,
        "meta_mean_motion_ddot": 0,
        "tle_line1": "1 30960U 99025BBA 25352.13240353  .00008891  00000+0  11958-2 0  9992",
        "tle_line2": "2 30960  99.0009 108.6406 0196153 145.2813 216.1374 14.66992956987770"
      },
      "geometry": {
        "type": "Point",
        "coordinates": [
          98.5097775452458,
          49.421981450074
        ]
      }
    },
    {
      "type": "Feature",
      "properties": {
        "norad_id": 30967,
        "name": "FENGYUN 1C DEB",
        "group": "fengyun-1c-debris",
        "lat": 70.77811282712837,
        "lon": -87.11759114840487,
        "alt_km": 752.4676642306804,
        "timestamp": "2025-12-18T14:52:08.305622+00:00",
        "meta_object_name": "FENGYUN 1C DEB",
        "meta_object_id": "1999-025BBH",
        "meta_epoch": "2025-12-17T08:51:58.316544",
        "meta_mean_motion": 14.57173124,
        "meta_eccentricity": 0.00946449,
        "meta_inclination": 98.7642,
        "meta_ra_of_asc_node": 297.8284,
        "meta_arg_of_pericenter": 225.2916,
        "meta_mean_anomaly": 134.0546,
        "meta_ephemeris_type": 0,
        "meta_classification_type": "U",
        "meta_norad_cat_id": 30967,
        "meta_element_set_no": 999,
        "meta_rev_at_epoch": 99081,
        "meta_bstar": 0.00055251457,
        "meta_mean_motion_dot": 2.594e-05,
        "meta_mean_motion_ddot": 0,
        "tle_line1": "1 30967U 99025BBH 25351.36942496  .00002594  00000+0  55251-3 0  9999",
        "tle_line2": "2 30967  98.7642 297.8284 0094644 225.2916 134.0546 14.57173124990812"
      },
      "geometry": {
        "type": "Point",
        "coordinates": [
          -87.11759114840487,
          70.77811282712837
        ]
      }
    },
    {
      "type": "Feature",
      "properties": {
        "norad_id": 30971,
        "name": "FENGYUN 1C DEB",
        "group": "fengyun-1c-debris",
        "lat": -46.7647215177124,
        "lon": -152.6951728859324,
        "alt_km": 593.9356398010241,
        "timestamp": "2025-12-18T14:52:08.305632+00:00",
        "meta_object_name": "FENGYUN 1C DEB",
        "meta_object_id": "1999-025BBM",
        "meta_epoch": "2025-12-17T08:46:03.055296",
        "meta_mean_motion": 14.71744333,
        "meta_eccentricity": 0.01639021,
        "meta_inclination": 99.2095,
        "meta_ra_of_asc_node": 35.8227,
        "meta_arg_of_pericenter": 176.9152,
        "meta_mean_anomaly": 247.6493,
        "meta_ephemeris_type": 0,
        "meta_classification_type": "U",
        "meta_norad_cat_id": 30971,
        "meta_element_set_no": 999,
        "meta_rev_at_epoch": 99785,
        "meta_bstar": 0.00047613959,
        "meta_mean_motion_dot": 3.596e-05,
        "meta_mean_motion_ddot": 0,
        "tle_line1": "1 30971U 99025BBM 25351.36531314  .00003596  00000+0  47614-3 0  9994",
        "tle_line2": "2 30971  99.2095  35.8227 0163902 176.9152 247.6493 14.71744333997855"
      },
      "geometry": {
        "type": "Point",
        "coordinates": [
          -152.6951728859324,
          -46.7647215177124
        ]
      }
    }
  ]
}